GALAXY 25 (G-25)        
1 24812U 97026A   23206.51684358 -.00000214  00000+0  00000+0 0  9990
2 24812   4.7019  79.5958 0012431  23.1614 149.3829  0.99037691 95746
INTELSAT 5 (IS-5)       
1 24916U 97046A   23206.62487199 -.00000054  00000+0  00000+0 0  9995
2 24916   8.0896  58.1125 0002840 103.8374 172.1995  1.00271849 95018
GALAXY 11 (G-11)        
1 26038U 99071A   23206.04347738 -.00000125  00000+0  00000+0 0  9991
2 26038   4.0166  83.1970 0002665 119.4413  21.0415  1.00141415 86473
INTELSAT 9 (IS-9)       
1 26451U 00043A   23206.59568234 -.00000279  00000+0  00000+0 0  9997
2 26451   8.0732  58.2981 0002172  72.6447 336.5438  1.00270790 33548
INTELSAT 1R (IS-1R)     
1 26608U 00072A   23206.54114597 -.00000128  00000+0  00000+0 0  9990
2 26608   5.4763  75.8888 0000681 129.0259  89.9766  1.00271869 30716
INTELSAT 10 (IS-10)     
1 26766U 01019A   23206.55354385  .00000043  00000+0  00000+0 0  9994
2 26766   6.5337  69.7880 0002971  33.7364 216.5393  1.00271974 35015
INTELSAT 901 (IS-901)   
1 26824U 01024A   23206.48672175 -.00000188  00000+0  00000+0 0  9998
2 26824   0.0503 256.5504 0001067 231.3973 322.6988  1.00270219 12385
INTELSAT 902 (IS-902)   
1 26900U 01039A   23206.55361437 -.00000270  00000+0  00000+0 0  9995
2 26900   3.4225  84.4901 0002204  38.5589 329.1487  1.00272556 80096
INTELSAT 904 (IS-904)   
1 27380U 02007A   23206.48646025 -.00000202  00000+0  00000+0 0  9990
2 27380   4.2459  81.5712 0002937  44.8267 322.1656  1.00272184 41164
DIRECTV 5 (TEMPO 1)     
1 27426U 02023A   23206.60184441 -.00000043  00000+0  00000+0 0  9995
2 27426   2.1519  88.4478 0003370  43.3063 277.8316  1.00272275 77512
INTELSAT 905 (IS-905)   
1 27438U 02027A   23206.41577564 -.00000173  00000+0  00000+0 0  9997
2 27438   4.0693  82.2662 0002755  40.3945 305.3737  1.00270335 40753
GALAXY 3C (G-3C)        
1 27445U 02030A   23206.54507222 -.00000138  00000+0  00000+0 0  9998
2 27445   0.9896  90.2963 0001975 108.0839 205.9735  1.00271936 35880
INTELSAT 906 (IS-906)   
1 27513U 02041A   23206.57674708  .00000027  00000+0  00000+0 0  9999
2 27513   3.0945  85.8269 0003657  21.0352 107.9074  1.00271532 76421
GALAXY 12 (G-12)        
1 27715U 03013B   23206.58345924  .00000107  00000+0  00000+0 0  9998
2 27715   4.2801  81.2808 0001842  37.3342 257.3631  1.00273447 41485
GALAXY 23 (G-23)        
1 27854U 03034A   23206.59337502  .00000027  00000+0  00000+0 0  9990
2 27854   0.4573  94.0674 0002932  34.5405 267.1442  1.00272000 73136
GALAXY 13 (HORIZONS-1)  
1 27954U 03044A   23206.58917454  .00000063  00000+0  00000+0 0  9991
2 27954   0.0043  14.8507 0002002 119.7697 253.4800  1.00270768 35961
INTELSAT 10-02          
1 28358U 04022A   23206.06213066  .00000003  00000+0  00000+0 0  9992
2 28358   0.0153  62.1814 0001075  84.1007 177.6146  1.00268672 69933
XM-3 (RHYTHM)           
1 28626U 05008A   23206.54698986 -.00000190  00000+0  00000+0 0  9994
2 28626   0.0399 227.1814 0000248 267.8467 279.7778  1.00270216 32018
DIRECTV 8               
1 28659U 05019A   23206.59420955  .00000016  00000+0  00000+0 0  9992
2 28659   0.0159  77.5457 0002860  46.6160 273.7463  1.00273047 66469
GALAXY 28 (G-28)        
1 28702U 05022A   23206.54620536 -.00000171  00000+0  00000+0 0  9990
2 28702   0.5611  91.5037 0001741 110.8308 208.2559  1.00272358 41377
GALAXY 14 (G-14)        
1 28790U 05030A   23206.57052435  .00000168  00000+0  00000+0 0  9991
2 28790   2.2840  87.7515 0001424  23.5649  69.9634  1.00271427 65706
GALAXY 15 (G-15)        
1 28884U 05041A   23206.55813170 -.00000129  00000+0  00000+0 0  9994
2 28884   0.7769  84.7436 0014818  97.5447 145.5457  0.98942991 64979
SPACEWAY 2              
1 28903U 05046B   23206.58173187  .00000116  00000+0  00000+0 0  9996
2 28903   2.8256  84.1173 0000525 172.5927 116.8216  1.00272103 40731
GALAXY 16 (G-16)        
1 29236U 06023A   23206.60606212 -.00000112  00000+0  00000+0 0  9992
2 29236   0.0619 258.1440 0002822 226.1437 297.9382  1.00272030 62365
DIRECTV 9S              
1 29494U 06043A   23206.60515736 -.00000098  00000+0  00000+0 0  9993
2 29494   0.2446 275.0706 0002853 206.2423 298.3906  1.00271855 40774
XM-4 (BLUES)            
1 29520U 06049A   23206.26953834 -.00000242  00000+0  00000+0 0  9997
2 29520   0.1001 111.8070 0000303 302.4774 306.4633  1.00269334 40864
GALAXY 17 (G-17)        
1 31307U 07016B   23206.40793441 -.00000191  00000+0  00000+0 0  9993
2 31307   0.2769  94.0423 0002683  64.8587 205.7786  1.00270902 59199
DIRECTV 10              
1 31862U 07032A   23206.34331071 -.00000088  00000+0  00000+0 0  9992
2 31862   0.0081 252.6491 0000346 303.0534 127.8826  1.00272336 34983
SPACEWAY 3              
1 32018U 07036A   23206.54507222 -.00000138  00000+0  00000+0 0  9991
2 32018   1.2516  89.0737 0000598 317.4574 357.7228  1.00272360 35944
INTELSAT 11 (IS-11)     
1 32253U 07044B   23206.41202755 -.00000254  00000+0  00000+0 0  9999
2 32253   0.8133  91.8781 0003262  39.3126 276.9873  1.00270850 57886
HORIZONS-2              
1 32388U 07063B   23206.47756944 -.00000238  00000+0  00000+0 0  9991
2 32388   0.0208 309.5744 0002508 185.6520 265.8126  1.00270493 57200
DIRECTV 11              
1 32729U 08013A   23206.33764081 -.00000111  00000+0  00000+0 0  9992
2 32729   0.0151  71.1760 0000683 112.8457 141.1209  1.00270797 34984
GALAXY 18 (G-18)        
1 32951U 08024A   23206.59163917  .00000040  00000+0  00000+0 0  9990
2 32951   0.0136 348.9422 0003206 143.9431 260.1364  1.00273728 35246
INTELSAT 25 (IS-25)     
1 33153U 08034A   23206.48602444 -.00000209  00000+0  00000+0 0  9995
2 33153   0.0110  58.8479 0003036  68.3690 319.1781  1.00272843 55090
GALAXY 19 (G-19)        
1 33376U 08045A   23206.60777546 -.00000124  00000+0  00000+0 0  9990
2 33376   0.0112  24.5446 0002878 101.4665 298.8417  1.00271750 54293
FM-5                    
1 35493U 09034A   23206.54681552 -.00000185  00000+0  00000+0 0  9992
2 35493   0.0164 318.9356 0000256 271.8970 182.8600  1.00270498 36026
INTELSAT 14 (IS-14)     
1 36097U 09064A   23206.41167888 -.00000259  00000+0  00000+0 0  9995
2 36097   0.0024 351.9509 0002542 137.8426 276.2688  1.00271370 49990
INTELSAT 15 (IS-15)     
1 36106U 09067A   23206.58093098 -.00000171  00000+0  00000+0 0  9991
2 36106   0.0268 319.6924 0002387 163.3908 114.2257  1.00270789 30625
DIRECTV 12              
1 36131U 09075A   23206.39813557 -.00000089  00000+0  00000+0 0  9995
2 36131   0.0137 179.9674 0000228 264.5981 258.8910  1.00271259 35959
INTELSAT 16 (IS-16)     
1 36397U 10006A   23206.54882031 -.00000230  00000+0  00000+0 0  9993
2 36397   0.0228 324.7929 0002546 180.3014 279.2657  1.00271068 49042
XM-5                    
1 37185U 10053A   23206.39130701 -.00000008  00000+0  00000+0 0  9997
2 37185   0.0361 248.1262 0000091 158.2476 282.1346  1.00271744 46871
INTELSAT 17 (IS-17)     
1 37238U 10065B   23206.59251345  .00000013  00000+0  00000+0 0  9994
2 37238   0.0180 181.4536 0002674 316.7625  84.1072  1.00271768 42630
INTELSAT NEW DAWN       
1 37392U 11016A   23206.57052435  .00000170  00000+0  00000+0 0  9993
2 37392   0.0144 105.5215 0001188  32.7722  42.9222  1.00275383 42685
INTELSAT 18 (IS-18)     
1 37834U 11056A   23206.58711698  .00000068  00000+0  00000+0 0  9998
2 37834   0.0166  46.3013 0002062  80.5588 207.5264  1.00272758 43208
INTELSAT 22 (IS-22)     
1 38098U 12011A   23206.57831604 -.00000044  00000+0  00000+0 0  9997
2 38098   0.0064  23.8192 0002568 119.8766  79.6040  1.00270451 41218
INTELSAT 19 (IS-19)     
1 38356U 12030A   23206.62444716 -.00000042  00000+0  00000+0 0  9993
2 38356   0.0177  44.5714 0003237  84.0617 205.2441  1.00272204 39837
INTELSAT 20 (IS-20)     
1 38740U 12043A   23206.07590271 -.00000011  00000+0  00000+0 0  9997
2 38740   0.0130  85.8867 0001396  96.5492 215.9077  1.00273690 40131
INTELSAT 21 (IS-21)     
1 38749U 12045A   23206.47992660 -.00000270  00000+0  00000+0 0  9997
2 38749   0.0306 287.4533 0002314 204.3804 285.8524  1.00270108 39910
INTELSAT 23 (IS-23)     
1 38867U 12057A   23206.48175334 -.00000270  00000+0  00000+0 0  9993
2 38867   0.0399 239.2989 0000068  65.2630 118.7893  1.00278633 39338
FM-6                    
1 39360U 13058A   23206.59588473 -.00000002  00000+0  00000+0 0  9991
2 39360   0.0059   2.9282 0000344  19.4368  19.0177  1.00269927 35450
INTELSAT 30 (IS-30)     
1 40271U 14062A   23206.54507222 -.00000136  00000+0  00000+0 0  9996
2 40271   0.0190  62.5527 0001977  16.9324 324.6667  1.00270725 31970
DIRECTV 14              
1 40333U 14078B   23206.60606209 -.00000111  00000+0  00000+0 0  9997
2 40333   0.0161  65.2351 0000298 341.9909  14.7733  1.00271910 31458
DIRECTV 15              
1 40663U 15026A   23205.89843177 -.00000089  00000+0  00000+0 0  9998
2 40663   0.0156  76.3624 0000885 303.8192 142.7461  1.00271732 29861
SKY MEXICO-1            
1 40664U 15026B   23206.54829733 -.00000220  00000+0  00000+0 0  9991
2 40664   0.0187  76.7010 0002250  51.2049 293.7052  1.00271552 29843
INTELSAT 34 (IS-34)     
1 40874U 15039A   23206.05123506 -.00000271  00000+0  00000+0 0  9995
2 40874   0.0373 281.7641 0001561  98.2302 245.4672  1.00272277 29014
INTELSAT 31 (IS-31)     
1 41581U 16035A   23206.27726743 -.00000136  00000+0  00000+0 0  9994
2 41581   0.0411 235.6932 0000905 354.3919  77.3978  1.00272055 26084
INTELSAT 36 (IS-36)     
1 41747U 16053A   23206.07590271 -.00000011  00000+0  00000+0 0  9993
2 41747   0.0103   9.4770 0002841 359.1495  29.7193  1.00272253 25333
INTELSAT 33E (IS-33E)   
1 41748U 16053B   23206.57596260  .00000063  00000+0  00000+0 0  9999
2 41748   0.0483 266.4306 0002079 216.5452  87.3733  1.00272691 25647
INTELSAT 32E (IS-32E)   
1 41945U 17007B   23206.41202755 -.00000254  00000+0  00000+0 0  9997
2 41945   0.0189  67.5105 0000433 338.7963   1.6995  1.00270034 23626
INTELSAT 35E (IS-35E)   
1 42818U 17041A   23206.48541427 -.00000223  00000+0  00000+0 0  9990
2 42818   0.0375 251.4326 0001664 214.6096 337.1420  1.00270923 22208
INTELSAT 37E (IS-37E)   
1 42950U 17059A   23206.41708310 -.00000126  00000+0  00000+0 0  9997
2 42950   0.0096  30.5172 0002902 108.9658 295.5236  1.00270825 21454
AZERSPACE 2 (IS-38)     
1 43632U 18074A   23206.57296497  .00000151  00000+0  00000+0 0  9995
2 43632   0.0190  71.6862 0001528  52.9021  69.8085  1.00270871 17847
HORIZONS-3E             
1 43633U 18074B   23205.80926213 -.00000017  00000+0  00000+0 0  9999
2 43633   0.0312 180.1340 0001064 113.9777 108.4691  1.00272716 17733
AT&T T-16               
1 44333U 19034A   23206.60515740 -.00000100  00000+0  00000+0 0  9995
2 44333   0.0198 304.1264 0000654  99.1812  16.7299  1.00269640 15022
INTELSAT 39 (IS-39)     
1 44476U 19049B   23206.57631125  .00000048  00000+0  00000+0 0  9991
2 44476   0.0109  21.3690 0001184 344.5445 206.5148  1.00270945 14538
GALAXY 30 (G-30)        
1 46114U 20056C   23206.59083929  .00000052  00000+0  00000+0 0  9992
2 46114   0.0170  67.8915 0002081  51.3771 271.4702  1.00271037 10686
GALAXY 33 (G-33)        
1 54026U 22128A   23206.61704684  .00000094  00000+0  00000+0 0  9992
2 54026   0.0126   4.6973 0002052 116.8229 270.6777  1.00272838  3140
GALAXY 34 (G-34)        
1 54027U 22128B   23206.58833369  .00000073  00000+0  00000+0 0  9999
2 54027   0.0112  31.2117 0001209 101.9901 252.6084  1.00274689  3302
GALAXY 31 (G-31)        
1 54243U 22153A   23206.59332385  .00000028  00000+0  00000+0 0  9990
2 54243   0.0102 355.5187 0001870 256.2447 143.8660  1.00272524  2534
GALAXY 32 (G-32)        
1 54244U 22153B   23206.46199294 -.00000159  00000+0  00000+0 0  9993
2 54244   0.0103   3.3118 0001622  57.1822 317.7183  1.00271514  2538
GALAXY 35 (G-35)        
1 54741U 22170A   23206.54542088 -.00000147  00000+0  00000+0 0  9993
2 54741   0.0136  51.1748 0000800 131.7884 223.2677  1.00271122  2286
GALAXY 36 (G-36)        
1 54742U 22170B   23206.54620536 -.00000170  00000+0  00000+0 0  9995
2 54742   0.0185  67.2321 0003648  41.2351 302.1505  1.00269192  2161
